OBJECT_NAME,OBJECT_ID,EPOCH,MEAN_MOTION,ECCENTRICITY,INCLINATION,RA_OF_ASC_NODE,ARG_OF_PERICENTER,MEAN_ANOMALY,EPHEMERIS_TYPE,CLASSIFICATION_TYPE,NORAD_CAT_ID,ELEMENT_SET_NO,REV_AT_EPOCH,BSTAR,MEAN_MOTION_DOT,MEAN_MOTION_DDOT
ONEWEB-0167,2021-025Y,2026-06-19T04:20:27.342528,13.13468071,.00018188,87.8955,319.8333,118.2110,241.9203,0,U,48064,999,25383,.73419001E-3,.281E-5,0
ONEWEB-0166,2021-025Z,2026-06-19T03:03:41.176224,13.13458558,.00020085,87.8960,319.8154,95.3660,264.7699,0,U,48065,999,25390,-.26564776E-2,-.957E-5,0
ONEWEB-0151,2021-025AA,2026-06-18T23:26:42.419904,13.13470328,.00017591,87.8957,319.8619,100.2632,259.8696,0,U,48066,999,25382,-.82324789E-3,-.288E-5,0
ONEWEB-0170,2021-025AB,2026-06-19T03:18:17.535744,13.13470233,.00013761,87.8958,319.8323,99.1763,260.9522,0,U,48067,999,25380,-.82778598E-3,-.29E-5,0
ONEWEB-0168,2021-025AC,2026-06-19T02:56:21.324192,13.13469975,.00020041,87.8965,319.8346,100.0374,260.0982,0,U,48068,999,25381,-.21290526E-3,-.65E-6,0
ONEWEB-0173,2021-025AD,2026-06-19T02:44:10.335264,13.13469827,.0001985,87.8959,319.8384,107.6561,252.4785,0,U,48069,999,25405,.21804263E-3,.92E-6,0
ONEWEB-0171,2021-025AE,2026-06-19T03:37:47.869536,13.13471397,.00017609,87.8956,319.8389,99.3780,260.7548,0,U,48070,999,25387,-.40110236E-3,-.134E-5,0
ONEWEB-0172,2021-025AF,2026-06-19T03:08:31.966656,13.13469581,.00018031,87.8961,319.8330,102.6582,257.4748,0,U,48071,999,25476,-.1156858E-2,-.41E-5,0
ONEWEB-0174,2021-025AG,2026-06-19T02:41:44.559456,13.13470415,.00019919,87.8959,319.8360,96.3249,263.8107,0,U,48072,999,25408,.31965159E-3,.129E-5,0
ONEWEB-0175,2021-025AH,2026-06-19T03:25:36.646464,13.13470847,.00015629,87.8966,319.8143,104.5135,255.6167,0,U,48073,999,25374,-.81614441E-3,-.285E-5,0
ONEWEB-0177,2021-025AJ,2026-06-19T03:42:40.064832,13.13471415,.00020638,87.8962,319.8304,100.0233,260.1129,0,U,48074,999,25393,-.16775147E-4,.7E-7,0
ONEWEB-0178,2021-025AK,2026-06-18T17:11:30.750432,13.13468702,.00017781,87.8949,319.9299,106.2063,253.9262,0,U,48075,999,25392,.87965364E-3,.334E-5,0
ONEWEB-0108,2021-025AL,2026-06-19T03:10:58.905408,13.13469805,.00018844,87.8963,319.8262,89.9636,270.1710,0,U,48076,999,25390,-.93700851E-3,-.329E-5,0
ONEWEB-0169,2021-025AM,2026-06-19T03:57:18.283680,13.13470285,.00019516,87.8959,319.8275,96.2527,263.8825,0,U,48077,999,25256,.61091832E-3,.236E-5,0
ONEWEB-0176,2021-031A,2026-06-18T18:39:33.122880,13.14503239,.00019042,87.8968,289.3822,104.5532,255.5809,0,U,48210,999,24852,.5584544E-3,.22E-5,0
ONEWEB-0184,2021-031B,2026-06-19T06:47:59.385408,13.14503135,.00016553,87.8975,289.2822,126.1756,233.9527,0,U,48211,999,24856,-.5439224E-3,-.189E-5,0
ONEWEB-0179,2021-031C,2026-06-19T06:30:11.923776,14.25524002,.02188398,87.8991,286.4705,250.3385,107.4077,0,U,48212,999,24934,.30010832E-4,.108E-5,0
ONEWEB-0180,2021-031D,2026-06-18T18:05:17.707488,13.14502656,.00022427,87.8972,289.3839,110.8230,249.3140,0,U,48213,999,24842,-.61778903E-3,-.216E-5,0
ONEWEB-0218,2021-031E,2026-06-19T07:24:32.293440,13.14502599,.00019395,87.8976,289.2725,127.5787,232.5519,0,U,48214,999,24865,.41395152E-3,.166E-5,0
ONEWEB-0209,2021-031F,2026-06-19T07:08:32.257248,13.14502097,.00021492,87.8968,289.2915,102.9844,257.1526,0,U,48215,999,24865,-.22083189E-3,-.69E-6,0
ONEWEB-0198,2021-031G,2026-06-19T06:45:54.855360,13.14503046,.00021289,87.8958,289.2939,112.4440,247.6915,0,U,48216,999,24876,-.44728022E-3,-.153E-5,0
ONEWEB-0189,2021-031H,2026-06-19T07:03:58.886784,13.14503296,.00020582,87.8971,289.2777,110.3756,249.7595,0,U,48217,999,24850,-.32650513E-3,-.108E-5,0
ONEWEB-0196,2021-031J,2026-06-19T01:03:10.977120,13.14503178,.00020307,87.8967,289.3366,104.3277,255.8078,0,U,48218,999,24847,-.46419774E-3,-.159E-5,0
ONEWEB-0183,2021-031K,2026-06-19T00:26:38.952096,13.14503101,.00020585,87.8966,289.3398,96.1628,263.9736,0,U,48219,999,24856,.34964165E-3,.142E-5,0
ONEWEB-0185,2021-031L,2026-06-18T21:25:05.710080,13.14502669,.0002341,87.8974,289.3583,100.2611,259.8783,0,U,48220,999,24847,-.69703E-3,-.246E-5,0
ONEWEB-0187,2021-031M,2026-06-19T06:04:23.483712,13.14498963,.0002084,87.8962,289.3020,103.7610,256.3752,0,U,48221,999,24853,.14229008E-2,.54E-5,0
ONEWEB-0192,2021-031N,2026-06-19T07:10:49.463904,13.14501350,.0001921,87.8967,289.2833,103.9767,256.1577,0,U,48222,999,24845,-.13802717E-3,-.38E-6,0
ONEWEB-0219,2021-031P,2026-06-19T06:41:07.194336,13.14501244,.00021725,87.8967,289.2792,102.9819,257.1554,0,U,48223,999,24865,-.40619323E-3,-.138E-5,0
ONEWEB-0202,2021-031Q,2026-06-19T06:13:45.077664,13.14502676,.00019303,87.8969,289.2957,121.5043,238.6276,0,U,48224,999,24863,.13385222E-3,.62E-6,0
ONEWEB-0204,2021-031R,2026-06-19T07:02:49.151616,13.14511584,.00020915,87.8972,289.2841,92.9248,267.2122,0,U,48225,999,24853,.17583356E-2,.665E-5,0
ONEWEB-0205,2021-031S,2026-06-19T06:27:25.359264,13.14501098,.00021814,87.8975,289.2815,105.4841,254.6530,0,U,48226,999,24854,-.2628862E-3,-.85E-6,0
ONEWEB-0206,2021-031T,2026-06-19T02:09:24.041376,13.14503996,.00017914,87.8972,289.3188,97.3137,262.8197,0,U,48227,999,24847,.55605027E-3,.219E-5,0
ONEWEB-0182,2021-031U,2026-06-19T07:31:23.277504,13.14502647,.00020657,87.8968,289.2818,95.7626,264.3740,0,U,48228,999,24871,.36417056E-3,.148E-5,0
ONEWEB-0186,2021-031V,2026-06-19T00:28:55.831296,13.14502873,.00020308,87.8978,289.3311,102.4649,257.6708,0,U,48229,999,24862,.50422133E-3,.2E-5,0
ONEWEB-0181,2021-031W,2026-06-19T07:15:24.041376,13.14503016,.00019922,87.8959,289.3034,104.5688,255.5663,0,U,48230,999,24851,.10850978E-4,.17E-6,0
ONEWEB-0188,2021-031X,2026-06-19T06:20:34.941120,13.14504228,.00019926,87.8961,289.3106,101.2613,258.8741,0,U,48231,999,24841,.44273892E-4,.29E-6,0
ONEWEB-0220,2021-031Y,2026-06-19T07:17:40.184448,13.14502283,.00022671,87.8974,289.2759,102.6190,257.5193,0,U,48232,999,24868,.1713721E-3,.76E-6,0
ONEWEB-0165,2021-031Z,2026-06-19T06:09:10.624608,13.14501482,.00020219,87.8969,289.2984,111.8792,248.2553,0,U,48233,999,24863,.49653747E-3,.197E-5,0
ONEWEB-0199,2021-031AA,2026-06-19T07:35:57.024672,13.14503343,.00018124,87.8974,289.2721,95.1380,264.9957,0,U,48234,999,24854,.66357777E-3,.259E-5,0
ONEWEB-0203,2021-031AB,2026-06-19T07:22:15.393504,13.14502796,.0001795,87.8973,289.2776,103.6938,256.4392,0,U,48235,999,24855,.29691794E-3,.123E-5,0
ONEWEB-0197,2021-031AC,2026-06-19T06:45:30.148416,13.14503974,.00021941,87.8963,289.2684,96.8464,263.2915,0,U,48236,999,24846,-.63710375E-3,-.223E-5,0
ONEWEB-0194,2021-031AD,2026-06-19T06:16:01.832448,13.14502637,.00016977,87.8968,289.2949,98.9525,261.1797,0,U,48237,999,24863,-.80761503E-4,-.17E-6,0
ONEWEB-0193,2021-031AE,2026-06-19T01:10:01.604352,13.14503338,.0001511,87.8967,289.3275,95.4418,264.6884,0,U,48238,999,24855,-.53273964E-3,-.185E-5,0
ONEWEB-0191,2021-031AF,2026-06-19T06:54:50.910336,13.14503370,.0002044,87.8976,289.2790,96.1362,264.0000,0,U,48239,999,24844,-.32703852E-3,-.108E-5,0
ONEWEB-0195,2021-031AG,2026-06-19T06:21:43.765632,13.14501548,.00021061,87.8973,289.2840,111.3227,248.8128,0,U,48240,999,24842,-.26735139E-4,.3E-7,0
ONEWEB-0201,2021-031AH,2026-06-19T06:04:47.050176,13.14504646,.00022278,87.8965,289.3022,97.5014,262.6369,0,U,48241,999,24865,.50158341E-3,.199E-5,0
ONEWEB-0207,2021-031AJ,2026-06-19T07:25:40.501920,13.14503080,.00022009,87.8972,289.2760,97.9445,262.1935,0,U,48242,999,24857,.51530594E-3,.204E-5,0
ONEWEB-0208,2021-031AK,2026-06-19T06:59:24.622944,13.14503793,.00020184,87.8970,289.2859,111.0423,249.0923,0,U,48243,999,24858,-.34218006E-3,-.114E-5,0
ONEWEB-0200,2021-031AL,2026-06-19T02:27:40.186944,13.14502736,.0002009,87.8977,289.3105,103.0614,257.0740,0,U,48244,999,24848,.35420047E-3,.144E-5,0
ONEWEB-0217,2021-031AM,2026-06-19T06:29:42.431136,13.14500027,.00020019,87.8976,289.2813,112.2739,247.8604,0,U,48245,999,24845,.65428226E-3,.255E-5,0
ONEWEB-0211,2021-045A,2026-06-19T05:50:36.549312,13.16197296,.00019873,87.9008,258.6715,120.8104,239.3222,0,U,48767,999,24471,.40376845E-3,.166E-5,0
ONEWEB-0223,2021-045B,2026-06-19T05:55:25.472640,13.15549803,.00017416,87.9012,258.7799,111.9212,248.2103,0,U,48768,999,24467,.32693201E-3,.136E-5,0
ONEWEB-0230,2021-045C,2026-06-19T05:14:20.774400,13.15548269,.00020249,87.9001,258.7992,96.5743,263.5618,0,U,48769,999,24493,.4776867E-3,.193E-5,0
ONEWEB-0237,2021-045D,2026-06-19T04:58:21.595296,13.15547310,.00017647,87.8999,258.8028,104.1022,256.0304,0,U,48770,999,24465,-.14035445E-3,-.4E-6,0
ONEWEB-0235,2021-045E,2026-06-19T06:11:23.399808,13.15548884,.00016881,87.9012,258.7787,110.0415,250.0897,0,U,48771,999,24465,.15234341E-3,.7E-6,0
ONEWEB-0242,2021-045F,2026-06-19T06:02:14.806464,13.15547439,.00017646,87.9014,258.7769,99.9128,260.2202,0,U,48772,999,24469,.1613253E-3,.74E-6,0
ONEWEB-0241,2021-045G,2026-06-19T05:44:00.692160,13.15549743,.0001911,87.8997,258.7976,113.8771,246.2560,0,U,48773,999,24460,.58425092E-3,.233E-5,0
ONEWEB-0243,2021-045H,2026-06-19T04:40:06.767328,13.15549006,.00014524,87.9007,258.8192,96.7042,263.4254,0,U,48774,999,24462,-.20560562E-3,-.65E-6,0
ONEWEB-0222,2021-045J,2026-06-19T06:05:40.537824,13.15549799,.00018565,87.9014,258.7746,107.3292,252.8041,0,U,48775,999,24467,.28465428E-3,.12E-5,0
ONEWEB-0244,2021-045K,2026-06-19T04:53:48.471072,13.15548629,.00018516,87.9015,258.7792,102.3048,257.8290,0,U,48776,999,24523,-.10717655E-3,-.28E-6,0
ONEWEB-0247,2021-045L,2026-06-19T04:49:14.292768,13.15547683,.00012082,87.9001,258.8118,110.5290,249.5970,0,U,48777,999,24467,-.25483155E-3,-.83E-6,0
ONEWEB-0245,2021-045M,2026-06-19T04:42:23.459040,13.15547982,.00019573,87.9015,258.7927,106.0001,254.1345,0,U,48778,999,24464,-.111354E-3,-.29E-6,0
ONEWEB-0229,2021-045N,2026-06-19T06:25:04.316448,13.15549238,.00018515,87.9016,258.7760,99.7545,260.3794,0,U,48779,999,24468,.7114025E-5,.15E-6,0
ONEWEB-0228,2021-045P,2026-06-19T05:23:39.216480,13.15548641,.00018891,87.9019,258.7767,100.6801,259.4542,0,U,48780,999,24459,.64561789E-3,.256E-5,0
ONEWEB-0232,2021-045Q,2026-06-19T04:46:56.368128,13.15547843,.00020173,87.9011,258.7831,102.6083,257.5273,0,U,48781,999,24491,-.97032103E-3,-.352E-5,0
